SITRO-AIS 10 (BURDAEV)  
1 57199U 23091AK  26170.46042009  .00016845  00000+0  44216-3 0  9990
2 57199  97.5075 241.0571 0007352  73.4214 286.7838 15.38684557165112
SITRO-AIS 9 (SHCHUKIN)  
1 57201U 23091AM  26170.55260098  .00015900  00000+0  42420-3 0  9990
2 57201  97.5074 240.8798 0007610  73.4458 286.7623 15.38192058165112
SITRO-AIS 12 (SMIRENNIY)
1 57204U 23091AQ  26170.54277199  .00016340  00000+0  43179-3 0  9993
2 57204  97.5087 241.3383 0007116  68.4056 291.7947 15.38485681165138
SITRO-AIS 11 (SHEFFER)  
1 57208U 23091AU  26170.55553599  .00016755  00000+0  43659-3 0  9992
2 57208  97.5085 241.5995 0007008  68.2793 291.9198 15.38912254165150
SITRO-AIS 25            
1 59066U 24039R   26170.58712462  .00002352  00000+0  18536-3 0  9992
2 59066  95.3906 236.7419 0143144 320.2813  38.7998 14.93523393125080
SITRO-AIS 26            
1 59067U 24039S   26170.58882383  .00002111  00000+0  16742-3 0  9993
2 59067  95.3909 236.6401 0143571 320.8816  38.2096 14.93319326125079
SITRO-AIS 27            
1 59068U 24039T   26170.62538175  .00001775  00000+0  14000-3 0  9996
2 59068  95.3914 236.9380 0142606 319.3525  39.7123 14.93739259125105
SITRO-AIS 28            
1 59071U 24039U   26170.60277233  .00002127  00000+0  16708-3 0  9992
2 59071  95.3912 236.9699 0142482 319.2618  39.8019 14.93773534125103
GRBBETA                 
1 60237U 24128C   26170.54292137  .00002191  00000+0  15906-3 0  9990
2 60237  61.9881 208.0011 0040352 135.1213 225.3155 15.06650427106629
OOV-CUBE (TUBSAT-30)    
1 60240U 24128F   26170.58394809  .00001296  00000+0  11023-3 0  9998
2 60240  61.9930 217.2156 0044338 134.2886 226.1856 15.02780984106472
ROBUSTA-3A (MEDITERRAN*)
1 60243U 24128J   26170.38384092  .00004256  00000+0  25697-3 0  9993
2 60243  61.9845 200.4756 0041136 128.3668 232.1135 15.11694010106757
LASARSAT                
1 62391U 24247Q   26170.49548139  .00028780  00000+0  57166-3 0  9991
2 62391  44.9733 249.2437 0007938 344.7299  15.3350 15.46491567 83678
