
    {
        "ARG_OF_PERICENTER": 73.4214,
        "BSTAR": 0.00044215807,
        "CLASSIFICATION_TYPE": "U",
        "ECCENTRICITY": 0.00073524,
        "ELEMENT_SET_NO": 999,
        "EPHEMERIS_TYPE": 0,
        "EPOCH": "2026-06-19T11:03:00.295776",
        "INCLINATION": 97.5075,
        "MEAN_ANOMALY": 286.7838,
        "MEAN_MOTION": 15.38684557,
        "MEAN_MOTION_DDOT": 0,
        "MEAN_MOTION_DOT": 0.00016845,
        "NORAD_CAT_ID": 57199,
        "OBJECT_ID": "2023-091AK",
        "OBJECT_NAME": "SITRO-AIS 10 (BURDAEV)",
        "RA_OF_ASC_NODE": 241.0571,
        "REV_AT_EPOCH": 16511
    },
    {
        "ARG_OF_PERICENTER": 73.4458,
        "BSTAR": 0.00042419738,
        "CLASSIFICATION_TYPE": "U",
        "ECCENTRICITY": 0.00076103,
        "ELEMENT_SET_NO": 999,
        "EPHEMERIS_TYPE": 0,
        "EPOCH": "2026-06-19T13:15:44.724672",
        "INCLINATION": 97.5074,
        "MEAN_ANOMALY": 286.7623,
        "MEAN_MOTION": 15.38192058,
        "MEAN_MOTION_DDOT": 0,
        "MEAN_MOTION_DOT": 0.000159,
        "NORAD_CAT_ID": 57201,
        "OBJECT_ID": "2023-091AM",
        "OBJECT_NAME": "SITRO-AIS 9 (SHCHUKIN)",
        "RA_OF_ASC_NODE": 240.8798,
        "REV_AT_EPOCH": 16511
    },
    {
        "ARG_OF_PERICENTER": 68.4056,
        "BSTAR": 0.00043179338,
        "CLASSIFICATION_TYPE": "U",
        "ECCENTRICITY": 0.00071167,
        "ELEMENT_SET_NO": 999,
        "EPHEMERIS_TYPE": 0,
        "EPOCH": "2026-06-19T13:01:35.499936",
        "INCLINATION": 97.5087,
        "MEAN_ANOMALY": 291.7947,
        "MEAN_MOTION": 15.38485681,
        "MEAN_MOTION_DDOT": 0,
        "MEAN_MOTION_DOT": 0.0001634,
        "NORAD_CAT_ID": 57204,
        "OBJECT_ID": "2023-091AQ",
        "OBJECT_NAME": "SITRO-AIS 12 (SMIRENNIY)",
        "RA_OF_ASC_NODE": 241.3383,
        "REV_AT_EPOCH": 16513
    },
    {
        "ARG_OF_PERICENTER": 68.2793,
        "BSTAR": 0.00043659127,
        "CLASSIFICATION_TYPE": "U",
        "ECCENTRICITY": 0.00070086,
        "ELEMENT_SET_NO": 999,
        "EPHEMERIS_TYPE": 0,
        "EPOCH": "2026-06-19T13:19:58.309536",
        "INCLINATION": 97.5085,
        "MEAN_ANOMALY": 291.9198,
        "MEAN_MOTION": 15.38912254,
        "MEAN_MOTION_DDOT": 0,
        "MEAN_MOTION_DOT": 0.00016755,
        "NORAD_CAT_ID": 57208,
        "OBJECT_ID": "2023-091AU",
        "OBJECT_NAME": "SITRO-AIS 11 (SHEFFER)",
        "RA_OF_ASC_NODE": 241.5995,
        "REV_AT_EPOCH": 16515
    },
    {
        "ARG_OF_PERICENTER": 320.2813,
        "BSTAR": 0.00018536405,
        "CLASSIFICATION_TYPE": "U",
        "ECCENTRICITY": 0.01431448,
        "ELEMENT_SET_NO": 999,
        "EPHEMERIS_TYPE": 0,
        "EPOCH": "2026-06-19T14:05:27.567168",
        "INCLINATION": 95.3906,
        "MEAN_ANOMALY": 38.7998,
        "MEAN_MOTION": 14.93523393,
        "MEAN_MOTION_DDOT": 0,
        "MEAN_MOTION_DOT": 2.352e-05,
        "NORAD_CAT_ID": 59066,
        "OBJECT_ID": "2024-039R",
        "OBJECT_NAME": "SITRO-AIS 25",
        "RA_OF_ASC_NODE": 236.7419,
        "REV_AT_EPOCH": 12508
    },
    {
        "ARG_OF_PERICENTER": 320.8816,
        "BSTAR": 0.00016742054,
        "CLASSIFICATION_TYPE": "U",
        "ECCENTRICITY": 0.01435714,
        "ELEMENT_SET_NO": 999,
        "EPHEMERIS_TYPE": 0,
        "EPOCH": "2026-06-19T14:07:54.378912",
        "INCLINATION": 95.3909,
        "MEAN_ANOMALY": 38.2096,
        "MEAN_MOTION": 14.93319326,
        "MEAN_MOTION_DDOT": 0,
        "MEAN_MOTION_DOT": 2.111e-05,
        "NORAD_CAT_ID": 59067,
        "OBJECT_ID": "2024-039S",
        "OBJECT_NAME": "SITRO-AIS 26",
        "RA_OF_ASC_NODE": 236.6401,
        "REV_AT_EPOCH": 12507
    },
    {
        "ARG_OF_PERICENTER": 319.3525,
        "BSTAR": 0.00013999873,
        "CLASSIFICATION_TYPE": "U",
        "ECCENTRICITY": 0.01426065,
        "ELEMENT_SET_NO": 999,
        "EPHEMERIS_TYPE": 0,
        "EPOCH": "2026-06-19T15:00:32.983200",
        "INCLINATION": 95.3914,
        "MEAN_ANOMALY": 39.7123,
        "MEAN_MOTION": 14.93739259,
        "MEAN_MOTION_DDOT": 0,
        "MEAN_MOTION_DOT": 1.775e-05,
        "NORAD_CAT_ID": 59068,
        "OBJECT_ID": "2024-039T",
        "OBJECT_NAME": "SITRO-AIS 27",
        "RA_OF_ASC_NODE": 236.938,
        "REV_AT_EPOCH": 12510
    },
    {
        "ARG_OF_PERICENTER": 319.2618,
        "BSTAR": 0.00016708242,
        "CLASSIFICATION_TYPE": "U",
        "ECCENTRICITY": 0.01424829,
        "ELEMENT_SET_NO": 999,
        "EPHEMERIS_TYPE": 0,
        "EPOCH": "2026-06-19T14:27:59.529312",
        "INCLINATION": 95.3912,
        "MEAN_ANOMALY": 39.8019,
        "MEAN_MOTION": 14.93773534,
        "MEAN_MOTION_DDOT": 0,
        "MEAN_MOTION_DOT": 2.127e-05,
        "NORAD_CAT_ID": 59071,
        "OBJECT_ID": "2024-039U",
        "OBJECT_NAME": "SITRO-AIS 28",
        "RA_OF_ASC_NODE": 236.9699,
        "REV_AT_EPOCH": 12510
    },
    {
        "ARG_OF_PERICENTER": 135.1213,
        "BSTAR": 0.00015906067,
        "CLASSIFICATION_TYPE": "U",
        "ECCENTRICITY": 0.00403525,
        "ELEMENT_SET_NO": 999,
        "EPHEMERIS_TYPE": 0,
        "EPOCH": "2026-06-19T13:01:48.406368",
        "INCLINATION": 61.9881,
        "MEAN_ANOMALY": 225.3155,
        "MEAN_MOTION": 15.06650427,
        "MEAN_MOTION_DDOT": 0,
        "MEAN_MOTION_DOT": 2.191e-05,
        "NORAD_CAT_ID": 60237,
        "OBJECT_ID": "2024-128C",
        "OBJECT_NAME": "GRBBETA",
        "RA_OF_ASC_NODE": 208.0011,
        "REV_AT_EPOCH": 10662
    },
    {
        "ARG_OF_PERICENTER": 134.2886,
        "BSTAR": 0.00011022768,
        "CLASSIFICATION_TYPE": "U",
        "ECCENTRICITY": 0.00443389,
        "ELEMENT_SET_NO": 999,
        "EPHEMERIS_TYPE": 0,
        "EPOCH": "2026-06-19T14:00:53.114976",
        "INCLINATION": 61.993,
        "MEAN_ANOMALY": 226.1856,
        "MEAN_MOTION": 15.02780984,
        "MEAN_MOTION_DDOT": 0,
        "MEAN_MOTION_DOT": 1.296e-05,
        "NORAD_CAT_ID": 60240,
        "OBJECT_ID": "2024-128F",
        "OBJECT_NAME": "OOV-CUBE (TUBSAT-30)",
        "RA_OF_ASC_NODE": 217.2156,
        "REV_AT_EPOCH": 10647
    },
    {
        "ARG_OF_PERICENTER": 128.3668,
        "BSTAR": 0.00025696862,
        "CLASSIFICATION_TYPE": "U",
        "ECCENTRICITY": 0.00411361,
        "ELEMENT_SET_NO": 999,
        "EPHEMERIS_TYPE": 0,
        "EPOCH": "2026-06-19T09:12:43.855488",
        "INCLINATION": 61.9845,
        "MEAN_ANOMALY": 232.1135,
        "MEAN_MOTION": 15.1169401,
        "MEAN_MOTION_DDOT": 0,
        "MEAN_MOTION_DOT": 4.256e-05,
        "NORAD_CAT_ID": 60243,
        "OBJECT_ID": "2024-128J",
        "OBJECT_NAME": "ROBUSTA-3A (MEDITERRANEE)",
        "RA_OF_ASC_NODE": 200.4756,
        "REV_AT_EPOCH": 10675
    },
    {
        "ARG_OF_PERICENTER": 344.7299,
        "BSTAR": 0.00057165975,
        "CLASSIFICATION_TYPE": "U",
        "ECCENTRICITY": 0.00079381,
        "ELEMENT_SET_NO": 999,
        "EPHEMERIS_TYPE": 0,
        "EPOCH": "2026-06-19T11:53:29.592096",
        "INCLINATION": 44.9733,
        "MEAN_ANOMALY": 15.335,
        "MEAN_MOTION": 15.46491567,
        "MEAN_MOTION_DDOT": 0,
        "MEAN_MOTION_DOT": 0.0002878,
        "NORAD_CAT_ID": 62391,
        "OBJECT_ID": "2024-247Q",
        "OBJECT_NAME": "LASARSAT",
        "RA_OF_ASC_NODE": 249.2437,
        "REV_AT_EPOCH": 8367
    }